NORAD_CAT_ID,OBJECT_NAME,OBJECT_TYPE,EPOCH,MEAN_MOTION,ECCENTRICITY,INCLINATION,RA_OF_ASC_NODE,ARG_OF_PERICENTER,MEAN_ANOMALY,BSTAR,MEAN_MOTION_DOT,MEAN_MOTION_DDOT,TLE_LINE0,TLE_LINE1,TLE_LINE2,SEMIMAJOR_AXIS,PERIOD,APOGEE,PERIGEE,DECAYED
53431.0,STARLINK-4548,PAYLOAD,2022-09-16 02:00:01,15.73231263,0.000157,53.216,65.4782,45.3968,215.3686,-0.00038195,-0.00053955,0.0,0 STARLINK-4548,1 53431U 22097AV  22259.08334491 -.00053955  00000-0 -38195-3 0  9996,2 53431  53.2160  65.4782 0001570  45.3968 215.3686 15.73231263  6230,6727.806,91.531,350.727,348.615,0.0
53431.0,STARLINK-4548,PAYLOAD,2022-09-16 14:00:01,15.73201777,0.0001394,53.2166,63.0035,43.8805,170.2882,-0.00055392,-0.00077652,0.0,0 STARLINK-4548,1 53431U 22097AV  22259.58334491 -.00077652  00000-0 -55392-3 0  9999,2 53431  53.2166  63.0035 0001394  43.8805 170.2882 15.73201777  1305,6727.89,91.533,350.6930000000001,348.81699999999995,0.0
53431.0,STARLINK-4548,PAYLOAD,2022-09-16 22:00:00,15.73202041,0.0001411,53.2174,61.3399,53.6709,249.3516,3.6267e-05,4.473e-05,0.0,0 STARLINK-4548,1 53431U 22097AV  22259.91667824  .00004473  00000-0  36267-4 0  9995,2 53431  53.2174  61.3399 0001411  53.6709 249.3516 15.73202041  6368,6727.889,91.533,350.704,348.805,0.0
53431.0,STARLINK-4548,PAYLOAD,2022-09-17 06:00:00,15.73190605,0.0001512,53.2168,59.7041,44.0129,348.0418,0.00022135,0.00030545,0.0,0 STARLINK-4548,1 53431U 22097AV  22260.25001157  .00030545  00000-0  22135-3 0  9992,2 53431  53.2168  59.7041 0001512  44.0129 348.0418 15.73190605  6414,6727.922,91.534,350.80400000000014,348.77,0.0
53431.0,STARLINK-4548,PAYLOAD,2022-09-17 14:00:01,15.73196022,0.0001704,53.2167,58.0553,45.539,75.4439,1.7351e-05,1.815e-05,0.0,0 STARLINK-4548,1 53431U 22097AV  22260.58334491  .00001815  00000-0  17351-4 0  9991,2 53431  53.2167  58.0553 0001704  45.5390  75.4439 15.73196022  1308,6727.906999999997,91.533,350.918,348.625,0.0
53431.0,STARLINK-4548,PAYLOAD,2022-09-17 22:00:00,15.73204065,0.0001810999999999,53.216,56.4072,40.2965,169.608,0.00031336,0.00043595,0.0,0 STARLINK-4548,1 53431U 22097AV  22260.91667824  .00043595  00000-0  31336-3 0  9996,2 53431  53.2160  56.4072 0001811  40.2965 169.6080 15.73204065  1303,6727.884,91.533,350.967,348.53,0.0
53431.0,STARLINK-4548,PAYLOAD,2022-09-18 06:00:00,15.73183908,0.0001587,53.2161,54.7557,42.7938,256.0662,0.0001214,0.00016439,0.0,0 STARLINK-4548,1 53431U 22097AV  22261.25001157  .00016439  00000-0  12140-3 0  9994,2 53431  53.2161  54.7557 0001587  42.7938 256.0662 15.73183908  6573,6727.941,91.534,350.874,348.73800000000006,0.0
53431.0,STARLINK-4548,PAYLOAD,2022-09-18 14:00:01,15.73194818,0.0001751999999999,53.2164,53.107,43.98,343.8683,-8.4731e-05,-0.00012492,0.0,0 STARLINK-4548,1 53431U 22097AV  22261.58335648 -.00012492  00000-0 -84731-4 0  9998,2 53431  53.2164  53.1070 0001752  43.9800 343.8683 15.73194818  1300,6727.91,91.533,350.954,348.596,0.0
53431.0,STARLINK-4548,PAYLOAD,2022-09-18 22:00:00,15.7318031,0.0001929,53.2163,51.4587,37.8856,78.8132,0.00069131,0.00097453,0.0,0 STARLINK-4548,1 53431U 22097AV  22261.91667824  .00097453  00000-0  69131-3 0  9993,2 53431  53.2163  51.4587 0001929  37.8856  78.8132 15.73180310  1308,6727.951,91.534,351.11400000000015,348.51800000000014,0.0
53431.0,STARLINK-4548,PAYLOAD,2022-09-19 06:00:02,15.73219326,0.0001689,53.2165,49.8071,37.7425,167.9616,-0.00012978,-0.00018809,0.0,0 STARLINK-4548,1 53431U 22097AV  22262.25002315 -.00018809  00000-0 -12978-3 0  9996,2 53431  53.2165  49.8071 0001689  37.7425 167.9616 15.73219326  6732,6727.84,91.532,350.841,348.569,0.0
53431.0,STARLINK-4548,PAYLOAD,2022-09-19 14:00:01,15.73240556,0.0001732,53.2163,48.1587,32.7159,261.8573,-0.00034224,-0.00048461,0.0,0 STARLINK-4548,1 53431U 22097AV  22262.58334491 -.00048461  00000-0 -34224-3 0  9990,2 53431  53.2163  48.1587 0001732  32.7159 261.8573 15.73240556  1305,6727.78,91.531,350.81,348.47900000000016,0.0
53431.0,STARLINK-4548,PAYLOAD,2022-09-19 22:00:00,15.73210194,0.0001911999999999,53.2156,46.5099,27.1899,356.3652,-0.00036643,-0.00051757,0.0,0 STARLINK-4548,1 53431U 22097AV  22262.91667824 -.00051757  00000-0 -36643-3 0  9995,2 53431  53.2156  46.5099 0001912  27.1899 356.3652 15.73210194  6832,6727.866,91.533,351.017,348.445,0.0
53431.0,STARLINK-4548,PAYLOAD,2022-09-20 14:00:01,15.73227421,0.0001966,53.2161,43.2101,35.0761,166.3265,-0.00035977,-0.00050871,0.0,0 STARLINK-4548,1 53431U 22097AV  22263.58334491 -.00050871  00000-0 -35977-3 0  9995,2 53431  53.2161  43.2101 0001966  35.0761 166.3265 15.73227421  6943,6727.816999999999,91.532,351.005,348.3590000000001,0.0
53431.0,STARLINK-4548,PAYLOAD,2022-09-20 22:00:01,15.73215184,0.0002077,53.216,41.5612,30.4556,259.9258,-0.00018608,-0.00026673,0.0,0 STARLINK-4548,1 53431U 22097AV  22263.91668981 -.00026673  00000-0 -18608-3 0  9991,2 53431  53.2160  41.5612 0002077  30.4556 259.9258 15.73215184  1304,6727.852,91.532,351.11400000000015,348.32,0.0
53431.0,STARLINK-4548,PAYLOAD,2022-09-21 08:00:01,15.73194846,0.0001972,53.2163,39.4972,35.7862,95.6867,-9.2038e-05,-0.00013515,0.0,0 STARLINK-4548,1 53431U 22097AV  22264.33334491 -.00013515  00000-0 -92038-4 0  9995,2 53431  53.2163  39.4972 0001972  35.7862  95.6867 15.73194846  7064,6727.91,91.533,351.102,348.4480000000001,0.0
53431.0,STARLINK-4548,PAYLOAD,2022-09-21 22:00:00,15.73182265,0.0002336999999999,53.2155,36.6126,33.7863,163.2665,0.00037772,0.00052687,0.0,0 STARLINK-4548,1 53431U 22097AV  22264.91667824  .00052687  00000-0  37772-3 0  9992,2 53431  53.2155  36.6126 0002337  33.7863 163.2665 15.73182265  1301,6727.946,91.534,351.3830000000001,348.23800000000006,0.0
53431.0,STARLINK-4548,PAYLOAD,2022-09-22 06:00:00,15.73224998,0.0002023,53.2158,34.9608,35.51,250.4739,2.9557e-05,3.533e-05,0.0,0 STARLINK-4548,1 53431U 22097AV  22265.25001157  .00003533  00000-0  29557-4 0  9990,2 53431  53.2158  34.9608 0002023  35.5100 250.4739 15.73224998  7202,6727.824000000001,91.532,351.05,348.32800000000015,0.0
53431.0,STARLINK-4548,PAYLOAD,2022-09-22 14:00:01,15.73238014,0.0002118,53.2161,33.3129,28.4484,346.5273,-0.00053409,-0.00075041,0.0,0 STARLINK-4548,1 53431U 22097AV  22265.58334491 -.00075041  00000-0 -53409-3 0  9993,2 53431  53.2161  33.3129 0002118  28.4484 346.5273 15.73238014  1307,6727.7869999999975,91.531,351.077,348.227,0.0
53431.0,STARLINK-4548,PAYLOAD,2022-09-22 22:00:00,15.73178576,0.0002193,53.2162,31.6636,20.7304,83.1885,0.00015563,0.00021257,0.0,0 STARLINK-4548,1 53431U 22097AV  22265.91667824  .00021257  00000-0  15563-3 0  9996,2 53431  53.2162  31.6636 0002193  20.7304  83.1885 15.73178576  1300,6727.956,91.534,351.297,348.346,0.0
53431.0,STARLINK-4548,PAYLOAD,2022-09-23 06:00:00,15.72957795,0.0002299999999999,53.2169,29.9995,32.8507,160.0773,0.0023836,0.00344408,0.0,0 STARLINK-4548,1 53431U 22097AV  22266.25001157  .00344408  00000-0  23836-2 0  9992,2 53431  53.2169  29.9995 0002300  32.8507 160.0773 15.72957795  7364,6728.5859999999975,91.547,351.99800000000016,348.903,0.0
53431.0,STARLINK-4548,PAYLOAD,2022-09-23 14:00:01,15.73202781,0.0002460999999999,53.2175,28.3475,38.1892,243.5193,2.0561e-05,2.265e-05,0.0,0 STARLINK-4548,1 53431U 22097AV  22266.58334491  .00002265  00000-0  20561-4 0  9994,2 53431  53.2175  28.3475 0002461  38.1892 243.5193 15.73202781  1301,6727.887,91.533,351.408,348.097,0.0
53431.0,STARLINK-4548,PAYLOAD,2022-09-23 22:00:00,15.73343705,0.0002392,53.2162,26.7078,17.831,352.87800000000016,-0.0024195999999999,-0.00329349,0.0,0 STARLINK-4548,1 53431U 22097AV  22266.91667824 -.00329349  00000-0 -24196-2 0  9993,2 53431  53.2162  26.7078 0002392  17.8310 352.8780 15.73343705  1308,6727.485,91.525,350.96,347.741,0.0
53431.0,STARLINK-4548,PAYLOAD,2022-09-24 06:00:00,15.73191767,0.000213,53.2162,25.0635,23.077,76.6399,0.00040998,0.00057294,0.0,0 STARLINK-4548,1 53431U 22097AV  22267.25001157  .00057294  00000-0  40998-3 0  9996,2 53431  53.2162  25.0635 0002130  23.0770  76.6399 15.73191767  7524,6727.919,91.534,351.217,348.351,0.0
53431.0,STARLINK-4548,PAYLOAD,2022-09-24 14:00:01,15.73214783,0.0002379999999999,53.2166,23.4159,19.4671,169.2656,-0.00018542,-0.00026582,0.0,0 STARLINK-4548,1 53431U 22097AV  22267.58335648 -.00026582  00000-0 -18542-3 0  9995,2 53431  53.2166  23.4159 0002380  19.4671 169.2656 15.73214783  1306,6727.853,91.532,351.319,348.117,0.0
53431.0,STARLINK-4548,PAYLOAD,2022-09-24 22:00:00,15.73239564,0.0002463,53.2166,21.7661,17.8091,259.81,-0.00076548,-0.00106897,0.0,0 STARLINK-4548,1 53431U 22097AV  22267.91667824 -.00106897  00000-0 -76548-3 0  9994,2 53431  53.2166  21.7661 0002463  17.8091 259.8100 15.73239564  1309,6727.781999999997,91.531,351.30400000000014,347.99,0.0
53431.0,STARLINK-4548,PAYLOAD,2022-09-25 14:00:01,15.732328400000002,0.0002612,53.2169,18.4676,17.4611,77.98,-0.00032585,-0.00046175,0.0,0 STARLINK-4548,1 53431U 22097AV  22268.58334491 -.00046175  00000-0 -32585-3 0  9994,2 53431  53.2169  18.4676 0002612  17.4611  77.9800 15.73232840  1307,6727.802,91.531,351.4240000000001,347.909,0.0
53431.0,STARLINK-4548,PAYLOAD,2022-09-25 22:00:01,15.73288895,0.0002552999999999,53.2164,16.8107,17.104,167.3394,-0.0018273,-0.00250599,0.0,0 STARLINK-4548,1 53431U 22097AV  22268.91668981 -.00250599  00000-0 -18273-2 0  9999,2 53431  53.2164  16.8107 0002553  17.1040 167.3394 15.73288895  1303,6727.642,91.528,351.224,347.789,0.0
53431.0,STARLINK-4548,PAYLOAD,2022-09-26 14:00:01,15.73176789,0.0002703,53.2169,13.5196,19.3301,342.8032,0.00028398,0.00039386,0.0,0 STARLINK-4548,1 53431U 22097AV  22269.58334491  .00039386  00000-0  28398-3 0  9996,2 53431  53.2169  13.5196 0002703  19.3301 342.8032 15.73176789  1308,6727.9609999999975,91.535,351.645,348.0080000000001,0.0
53431.0,STARLINK-4548,PAYLOAD,2022-09-26 22:00:00,15.73353155,0.0002822,53.2167,11.8615,17.4703,73.592,-0.0022511999999999,-0.00307417,0.0,0 STARLINK-4548,1 53431U 22097AV  22269.91667824 -.00307417  00000-0 -22512-2 0  9998,2 53431  53.2167  11.8615 0002822  17.4703  73.5920 15.73353155  1308,6727.459,91.524,351.222,347.425,0.0
